GLOBALSTAR M001 [-]     
1 25162U 98008A   23349.71215213 -.00000094  00000+0  22509-4 0  9999
2 25162  52.0013 132.4605 0002383 145.4070 317.1619 12.38175141175641
GLOBALSTAR M004 [-]     
1 25163U 98008B   23349.15680036 -.00000039  00000+0  35965-3 0  9995
2 25163  52.0005 292.1000 0003004 136.2302 326.8222 12.63344580192169
GLOBALSTAR M002 [-]     
1 25164U 98008C   23349.68618708 -.00000091  00000+0 -27940-3 0  9994
2 25164  51.9981 177.9713 0001184 153.3361 206.7520 11.61497596120211
GLOBALSTAR M003 [-]     
1 25165U 98008D   23349.97013611  .00000008  00000+0  10345-2 0  9995
2 25165  51.9778 249.7136 0007249 269.8267 176.1470 12.11960583166625
GLOBALSTAR M014 [-]     
1 25306U 98023A   23349.63938007 -.00000080  00000+0 -46290-4 0  9999
2 25306  51.9827 112.8623 0001707  97.3906   2.9969 11.65462915127085
GLOBALSTAR M006 [-]     
1 25307U 98023B   23349.62409179 -.00000096  00000+0 -41265-3 0  9995
2 25307  51.9906 144.8355 0003746 180.1035 261.5457 11.58157742153153
GLOBALSTAR M015 [-]     
1 25308U 98023C   23349.96643071 -.00000134  00000+0 -13733-2 0  9995
2 25308  51.9798 217.2901 0012147 171.4695 293.1071 11.48856753130958
GLOBALSTAR M008 [-]     
1 25309U 98023D   23349.92518314 -.00000060  00000+0  28429-3 0  9999
2 25309  51.9990 350.4536 0002726  94.2059 345.5881 12.36033265169928
